[{"OBJECT_NAME":"ONEWEB-0174","OBJECT_ID":"2021-025AG","EPOCH":"2026-01-01T23:43:14.962368","MEAN_MOTION":13.13469294,"ECCENTRICITY":0.0001706,"INCLINATION":87.8982,"RA_OF_ASC_NODE":353.2555,"ARG_OF_PERICENTER":92.9953,"MEAN_ANOMALY":267.1371,"EPHEMERIS_TYPE":0,"CLASSIFICATION_TYPE":"U","NORAD_CAT_ID":48072,"ELEMENT_SET_NO":999,"REV_AT_EPOCH":23201,"BSTAR":-0.00057663,"MEAN_MOTION_DOT":-1.98e-6,"MEAN_MOTION_DDOT":0},{"OBJECT_NAME":"ONEWEB-0175","OBJECT_ID":"2021-025AH","EPOCH":"2026-01-02T05:56:12.968448","MEAN_MOTION":13.1346872,"ECCENTRICITY":0.00015693,"INCLINATION":87.899,"RA_OF_ASC_NODE":353.1743,"ARG_OF_PERICENTER":74.8796,"MEAN_ANOMALY":285.2507,"EPHEMERIS_TYPE":0,"CLASSIFICATION_TYPE":"U","NORAD_CAT_ID":48073,"ELEMENT_SET_NO":999,"REV_AT_EPOCH":23170,"BSTAR":-4.8438754e-5,"MEAN_MOTION_DOT":-5.0e-8,"MEAN_MOTION_DDOT":0},{"OBJECT_NAME":"ONEWEB-0177","OBJECT_ID":"2021-025AJ","EPOCH":"2026-01-02T06:13:17.295744","MEAN_MOTION":13.13469545,"ECCENTRICITY":0.00015621,"INCLINATION":87.8992,"RA_OF_ASC_NODE":353.1919,"ARG_OF_PERICENTER":93.2087,"MEAN_ANOMALY":266.9221,"EPHEMERIS_TYPE":0,"CLASSIFICATION_TYPE":"U","NORAD_CAT_ID":48074,"ELEMENT_SET_NO":999,"REV_AT_EPOCH":23189,"BSTAR":0.00079596855,"MEAN_MOTION_DOT":3.03e-6,"MEAN_MOTION_DDOT":0},{"OBJECT_NAME":"ONEWEB-0178","OBJECT_ID":"2021-025AK","EPOCH":"2026-01-02T01:11:12.605280","MEAN_MOTION":13.13468151,"ECCENTRICITY":0.00014549,"INCLINATION":87.8977,"RA_OF_ASC_NODE":353.2722,"ARG_OF_PERICENTER":85.3654,"MEAN_ANOMALY":274.7641,"EPHEMERIS_TYPE":0,"CLASSIFICATION_TYPE":"U","NORAD_CAT_ID":48075,"ELEMENT_SET_NO":999,"REV_AT_EPOCH":23191,"BSTAR":0.00051373911,"MEAN_MOTION_DOT":2.0e-6,"MEAN_MOTION_DDOT":0},{"OBJECT_NAME":"ONEWEB-0108","OBJECT_ID":"2021-025AL","EPOCH":"2026-01-02T00:12:30.496320","MEAN_MOTION":13.13470315,"ECCENTRICITY":0.00019296,"INCLINATION":87.8987,"RA_OF_ASC_NODE":353.2314,"ARG_OF_PERICENTER":86.7916,"MEAN_ANOMALY":273.3434,"EPHEMERIS_TYPE":0,"CLASSIFICATION_TYPE":"U","NORAD_CAT_ID":48076,"ELEMENT_SET_NO":999,"REV_AT_EPOCH":23183,"BSTAR":-0.00027587471,"MEAN_MOTION_DOT":-8.8e-7,"MEAN_MOTION_DDOT":0},{"OBJECT_NAME":"ONEWEB-0169","OBJECT_ID":"2021-025AM","EPOCH":"2026-01-02T06:27:54.034560","MEAN_MOTION":13.13468014,"ECCENTRICITY":0.00019074,"INCLINATION":87.8982,"RA_OF_ASC_NODE":353.1991,"ARG_OF_PERICENTER":90.1593,"MEAN_ANOMALY":269.9755,"EPHEMERIS_TYPE":0,"CLASSIFICATION_TYPE":"U","NORAD_CAT_ID":48077,"ELEMENT_SET_NO":999,"REV_AT_EPOCH":23052,"BSTAR":0.00079530605,"MEAN_MOTION_DOT":3.03e-6,"MEAN_MOTION_DDOT":0},{"OBJECT_NAME":"ONEWEB-0176","OBJECT_ID":"2021-031A","EPOCH":"2026-01-01T18:51:08.985024","MEAN_MOTION":13.14502158,"ECCENTRICITY":0.00016182,"INCLINATION":87.9009,"RA_OF_ASC_NODE":322.8558,"ARG_OF_PERICENTER":78.7459,"MEAN_ANOMALY":281.3852,"EPHEMERIS_TYPE":0,"CLASSIFICATION_TYPE":"U","NORAD_CAT_ID":48210,"ELEMENT_SET_NO":999,"REV_AT_EPOCH":22645,"BSTAR":0.00048227592,"MEAN_MOTION_DOT":1.92e-6,"MEAN_MOTION_DDOT":0},{"OBJECT_NAME":"ONEWEB-0184","OBJECT_ID":"2021-031B","EPOCH":"2026-01-01T21:51:32.205024","MEAN_MOTION":13.14502208,"ECCENTRICITY":0.0001462,"INCLINATION":87.9022,"RA_OF_ASC_NODE":322.8142,"ARG_OF_PERICENTER":50.6699,"MEAN_ANOMALY":309.4561,"EPHEMERIS_TYPE":0,"CLASSIFICATION_TYPE":"U","NORAD_CAT_ID":48211,"ELEMENT_SET_NO":999,"REV_AT_EPOCH":22644,"BSTAR":-0.00053086,"MEAN_MOTION_DOT":-1.84e-6,"MEAN_MOTION_DDOT":0},{"OBJECT_NAME":"ONEWEB-0179","OBJECT_ID":"2021-031C","EPOCH":"2026-01-01T19:19:41.087424","MEAN_MOTION":13.14504306,"ECCENTRICITY":0.0001617,"INCLINATION":87.9014,"RA_OF_ASC_NODE":322.8418,"ARG_OF_PERICENTER":88.4035,"MEAN_ANOMALY":271.728,"EPHEMERIS_TYPE":0,"CLASSIFICATION_TYPE":"U","NORAD_CAT_ID":48212,"ELEMENT_SET_NO":999,"REV_AT_EPOCH":22647,"BSTAR":0.0006475,"MEAN_MOTION_DOT":2.53e-6,"MEAN_MOTION_DDOT":0},{"OBJECT_NAME":"ONEWEB-0180","OBJECT_ID":"2021-031D","EPOCH":"2026-01-01T21:56:06.399744","MEAN_MOTION":13.1450233,"ECCENTRICITY":0.000141,"INCLINATION":87.9021,"RA_OF_ASC_NODE":322.8192,"ARG_OF_PERICENTER":81.8832,"MEAN_ANOMALY":278.2457,"EPHEMERIS_TYPE":0,"CLASSIFICATION_TYPE":"U","NORAD_CAT_ID":48213,"ELEMENT_SET_NO":999,"REV_AT_EPOCH":22637,"BSTAR":-0.00044089,"MEAN_MOTION_DOT":-1.51e-6,"MEAN_MOTION_DDOT":0},{"OBJECT_NAME":"ONEWEB-0218","OBJECT_ID":"2021-031E","EPOCH":"2026-01-02T07:36:06.493248","MEAN_MOTION":13.14504806,"ECCENTRICITY":0.00011053,"INCLINATION":87.9019,"RA_OF_ASC_NODE":322.739,"ARG_OF_PERICENTER":50.1146,"MEAN_ANOMALY":310.0081,"EPHEMERIS_TYPE":0,"CLASSIFICATION_TYPE":"U","NORAD_CAT_ID":48214,"ELEMENT_SET_NO":999,"REV_AT_EPOCH":22658,"BSTAR":0.000153615,"MEAN_MOTION_DOT":7.0e-7,"MEAN_MOTION_DDOT":0},{"OBJECT_NAME":"ONEWEB-0209","OBJECT_ID":"2021-031F","EPOCH":"2026-01-02T07:20:08.572128","MEAN_MOTION":13.14502173,"ECCENTRICITY":0.00015927,"INCLINATION":87.9006,"RA_OF_ASC_NODE":322.7756,"ARG_OF_PERICENTER":86.8389,"MEAN_ANOMALY":273.2923,"EPHEMERIS_TYPE":0,"CLASSIFICATION_TYPE":"U","NORAD_CAT_ID":48215,"ELEMENT_SET_NO":999,"REV_AT_EPOCH":22658,"BSTAR":-0.00034491935,"MEAN_MOTION_DOT":-1.15e-6,"MEAN_MOTION_DDOT":0},{"OBJECT_NAME":"ONEWEB-0198","OBJECT_ID":"2021-031G","EPOCH":"2026-01-01T21:49:26.911200","MEAN_MOTION":13.14501977,"ECCENTRICITY":0.000128,"INCLINATION":87.9009,"RA_OF_ASC_NODE":322.8515,"ARG_OF_PERICENTER":79.4771,"MEAN_ANOMALY":280.6503,"EPHEMERIS_TYPE":0,"CLASSIFICATION_TYPE":"U","NORAD_CAT_ID":48216,"ELEMENT_SET_NO":999,"REV_AT_EPOCH":22664,"BSTAR":-0.00048558,"MEAN_MOTION_DOT":-1.67e-6,"MEAN_MOTION_DDOT":0},{"OBJECT_NAME":"ONEWEB-0189","OBJECT_ID":"2021-031H","EPOCH":"2026-01-02T07:15:33.860736","MEAN_MOTION":13.14501807,"ECCENTRICITY":0.00013655,"INCLINATION":87.9014,"RA_OF_ASC_NODE":322.7478,"ARG_OF_PERICENTER":79.3593,"MEAN_ANOMALY":280.7691,"EPHEMERIS_TYPE":0,"CLASSIFICATION_TYPE":"U","NORAD_CAT_ID":48217,"ELEMENT_SET_NO":999,"REV_AT_EPOCH":22643,"BSTAR":-0.00039860544,"MEAN_MOTION_DOT":-1.35e-6,"MEAN_MOTION_DDOT":0},{"OBJECT_NAME":"ONEWEB-0196","OBJECT_ID":"2021-031J","EPOCH":"2026-01-02T06:43:34.851936","MEAN_MOTION":13.1450504,"ECCENTRICITY":0.00015405,"INCLINATION":87.9009,"RA_OF_ASC_NODE":322.7656,"ARG_OF_PERICENTER":84.8196,"MEAN_ANOMALY":275.3109,"EPHEMERIS_TYPE":0,"CLASSIFICATION_TYPE":"U","NORAD_CAT_ID":48218,"ELEMENT_SET_NO":999,"REV_AT_EPOCH":22643,"BSTAR":-0.00015077008,"MEAN_MOTION_DOT":-4.3e-7,"MEAN_MOTION_DDOT":0},{"OBJECT_NAME":"ONEWEB-0183","OBJECT_ID":"2021-031K","EPOCH":"2026-01-01T22:48:38.000448","MEAN_MOTION":13.14502512,"ECCENTRICITY":0.00018065,"INCLINATION":87.9,"RA_OF_ASC_NODE":322.8341,"ARG_OF_PERICENTER":86.0965,"MEAN_ANOMALY":274.0371,"EPHEMERIS_TYPE":0,"CLASSIFICATION_TYPE":"U","NORAD_CAT_ID":48219,"ELEMENT_SET_NO":999,"REV_AT_EPOCH":22648,"BSTAR":0.00081013373,"MEAN_MOTION_DOT":3.13e-6,"MEAN_MOTION_DDOT":0},{"OBJECT_NAME":"ONEWEB-0185","OBJECT_ID":"2021-031L","EPOCH":"2026-01-01T21:36:40.296960","MEAN_MOTION":13.14504217,"ECCENTRICITY":0.0001658,"INCLINATION":87.9017,"RA_OF_ASC_NODE":322.8239,"ARG_OF_PERICENTER":99.1461,"MEAN_ANOMALY":260.9856,"EPHEMERIS_TYPE":0,"CLASSIFICATION_TYPE":"U","NORAD_CAT_ID":48220,"ELEMENT_SET_NO":999,"REV_AT_EPOCH":22640,"BSTAR":-0.0003792,"MEAN_MOTION_DOT":-1.28e-6,"MEAN_MOTION_DDOT":0},{"OBJECT_NAME":"ONEWEB-0187","OBJECT_ID":"2021-031M","EPOCH":"2026-01-02T04:26:24.083808","MEAN_MOTION":13.14501053,"ECCENTRICITY":0.00015291,"INCLINATION":87.9005,"RA_OF_ASC_NODE":322.8058,"ARG_OF_PERICENTER":87.0193,"MEAN_ANOMALY":273.1112,"EPHEMERIS_TYPE":0,"CLASSIFICATION_TYPE":"U","NORAD_CAT_ID":48221,"ELEMENT_SET_NO":999,"REV_AT_EPOCH":22645,"BSTAR":0.00057072677,"MEAN_MOTION_DOT":2.24e-6,"MEAN_MOTION_DDOT":0},{"OBJECT_NAME":"ONEWEB-0192","OBJECT_ID":"2021-031N","EPOCH":"2026-01-02T07:22:25.595616","MEAN_MOTION":13.14502579,"ECCENTRICITY":0.00016501,"INCLINATION":87.9001,"RA_OF_ASC_NODE":322.7712,"ARG_OF_PERICENTER":78.0042,"MEAN_ANOMALY":282.1272,"EPHEMERIS_TYPE":0,"CLASSIFICATION_TYPE":"U","NORAD_CAT_ID":48222,"ELEMENT_SET_NO":999,"REV_AT_EPOCH":22638,"BSTAR":-0.00024545555,"MEAN_MOTION_DOT":-7.8e-7,"MEAN_MOTION_DDOT":0},{"OBJECT_NAME":"ONEWEB-0219","OBJECT_ID":"2021-031P","EPOCH":"2026-01-01T21:44:40.993728","MEAN_MOTION":13.14502117,"ECCENTRICITY":0.0001577,"INCLINATION":87.9009,"RA_OF_ASC_NODE":322.8309,"ARG_OF_PERICENTER":88.6637,"MEAN_ANOMALY":271.4673,"EPHEMERIS_TYPE":0,"CLASSIFICATION_TYPE":"U","NORAD_CAT_ID":48223,"ELEMENT_SET_NO":999,"REV_AT_EPOCH":22653,"BSTAR":-0.00042619,"MEAN_MOTION_DOT":-1.45e-6,"MEAN_MOTION_DDOT":0},{"OBJECT_NAME":"ONEWEB-0202","OBJECT_ID":"2021-031Q","EPOCH":"2026-01-01T13:58:50.713824","MEAN_MOTION":13.14502021,"ECCENTRICITY":0.0001116,"INCLINATION":87.9007,"RA_OF_ASC_NODE":322.9059,"ARG_OF_PERICENTER":63.3701,"MEAN_ANOMALY":296.7543,"EPHEMERIS_TYPE":0,"CLASSIFICATION_TYPE":"U","NORAD_CAT_ID":48224,"ELEMENT_SET_NO":999,"REV_AT_EPOCH":22647,"BSTAR":0.0002197,"MEAN_MOTION_DOT":9.4e-7,"MEAN_MOTION_DDOT":0},{"OBJECT_NAME":"ONEWEB-0204","OBJECT_ID":"2021-031R","EPOCH":"2026-01-02T07:14:26.048832","MEAN_MOTION":13.14504977,"ECCENTRICITY":0.00018794,"INCLINATION":87.9009,"RA_OF_ASC_NODE":322.7538,"ARG_OF_PERICENTER":89.5575,"MEAN_ANOMALY":270.577,"EPHEMERIS_TYPE":0,"CLASSIFICATION_TYPE":"U","NORAD_CAT_ID":48225,"ELEMENT_SET_NO":999,"REV_AT_EPOCH":22646,"BSTAR":-0.00047608193,"MEAN_MOTION_DOT":-1.64e-6,"MEAN_MOTION_DDOT":0},{"OBJECT_NAME":"ONEWEB-0205","OBJECT_ID":"2021-031S","EPOCH":"2026-01-02T06:39:02.208960","MEAN_MOTION":13.14501426,"ECCENTRICITY":0.00016124,"INCLINATION":87.901,"RA_OF_ASC_NODE":322.7518,"ARG_OF_PERICENTER":87.4572,"MEAN_ANOMALY":272.6742,"EPHEMERIS_TYPE":0,"CLASSIFICATION_TYPE":"U","NORAD_CAT_ID":48226,"ELEMENT_SET_NO":999,"REV_AT_EPOCH":22647,"BSTAR":-0.00015662699,"MEAN_MOTION_DOT":-4.5e-7,"MEAN_MOTION_DDOT":0}]
